[
    {
        "Altitude(m)": 707976.005361566,
        "Argument of Periapsis(deg)": 0.004556048474650827,
        "Eccentricity": 0.0,
        "Inclination(deg)": 45.0,
        "Latitude(deg)": -19.614875402408195,
        "Longitude(deg)": -26.051516708799962,
        "Mean Anomaly(deg)": -28.11401334100767,
        "RAAN(deg)": 94.99569922341672,
        "Satellite Name": "Constellation 1 438",
        "Satellite Number": 438,
        "Semi-Major Axis(m)": 7083131.272910544,
        "Time(s)": 76
    },
    {
        "Altitude(m)": 707962.9748187552,
        "Argument of Periapsis(deg)": 0.004615996480896233,
        "Eccentricity": 0.0,
        "Inclination(deg)": 45.0,
        "Latitude(deg)": -19.574544377605825,
        "Longitude(deg)": -26.007422812569384,
        "Mean Anomaly(deg)": -28.05331220075776,
        "RAAN(deg)": 94.99564263425117,
        "Satellite Name": "Constellation 1 438",
        "Satellite Number": 438,
        "Semi-Major Axis(m)": 7083131.272910544,
        "Time(s)": 77
    },
    {
        "Altitude(m)": 707949.9528722627,
        "Argument of Periapsis(deg)": 0.004675944487141638,
        "Eccentricity": 0.0,
        "Inclination(deg)": 45.0,
        "Latitude(deg)": -19.53420021035879,
        "Longitude(deg)": -25.963352772299675,
        "Mean Anomaly(deg)": -27.992611060507887,
        "RAAN(deg)": 94.99558604508559,
        "Satellite Name": "Constellation 1 438",
        "Satellite Number": 438,
        "Semi-Major Axis(m)": 7083131.272910544,
        "Time(s)": 78
    },
    {
        "Altitude(m)": 707936.9395641333,
        "Argument of Periapsis(deg)": 0.004735892493387044,
        "Eccentricity": 0.0,
        "Inclination(deg)": 45.0,
        "Latitude(deg)": -19.493842935780876,
        "Longitude(deg)": -25.919306530493774,
        "Mean Anomaly(deg)": -27.931909920257933,
        "RAAN(deg)": 94.99552945592002,
        "Satellite Name": "Constellation 1 438",
        "Satellite Number": 438,
        "Semi-Major Axis(m)": 7083131.272910544,
        "Time(s)": 79
    },
    {
        "Altitude(m)": 707923.9349363412,
        "Argument of Periapsis(deg)": 0.004795840499632449,
        "Eccentricity": 0.0,
        "Inclination(deg)": 45.0,
        "Latitude(deg)": -19.453472588939647,
        "Longitude(deg)": -25.875284029683097,
        "Mean Anomaly(deg)": -27.871208780008075,
        "RAAN(deg)": 94.99547286675444,
        "Satellite Name": "Constellation 1 438",
        "Satellite Number": 438,
        "Semi-Major Axis(m)": 7083131.272910544,
        "Time(s)": 80
    },
    {
        "Altitude(m)": 707910.9390308231,
        "Argument of Periapsis(deg)": 0.004855788505877855,
        "Eccentricity": 0.0,
        "Inclination(deg)": 45.0,
        "Latitude(deg)": -19.41308920485613,
        "Longitude(deg)": -25.831285212426828,
        "Mean Anomaly(deg)": -27.810507639758164,
        "RAAN(deg)": 94.99541627758887,
        "Satellite Name": "Constellation 1 438",
        "Satellite Number": 438,
        "Semi-Major Axis(m)": 7083131.272910544,
        "Time(s)": 81
    },
    {
        "Altitude(m)": 707897.9518894661,
        "Argument of Periapsis(deg)": 0.00491573651212326,
        "Eccentricity": 0.0,
        "Inclination(deg)": 45.0,
        "Latitude(deg)": -19.372692818505545,
        "Longitude(deg)": -25.78731018940974,
        "Mean Anomaly(deg)": -27.749806499508303,
        "RAAN(deg)": 94.99535968842329,
        "Satellite Name": "Constellation 1 438",
        "Satellite Number": 438,
        "Semi-Major Axis(m)": 7083131.272910544,
        "Time(s)": 82
    },
    {
        "Altitude(m)": 707884.9735541123,
        "Argument of Periapsis(deg)": 0.004975684518368666,
        "Eccentricity": 0.0,
        "Inclination(deg)": 45.0,
        "Latitude(deg)": -19.332283464816044,
        "Longitude(deg)": -25.74335856705343,
        "Mean Anomaly(deg)": -27.68910535925835,
        "RAAN(deg)": 94.99530309925774,
        "Satellite Name": "Constellation 1 438",
        "Satellite Number": 438,
        "Semi-Major Axis(m)": 7083131.272910544,
        "Time(s)": 83
    },
    {
        "Altitude(m)": 707872.0040665454,
        "Argument of Periapsis(deg)": 0.005035632524614072,
        "Eccentricity": 0.0,
        "Inclination(deg)": 45.0,
        "Latitude(deg)": -19.291861178670757,
        "Longitude(deg)": -25.699430456099417,
        "Mean Anomaly(deg)": -27.62840421900844,
        "RAAN(deg)": 94.99524651009217,
        "Satellite Name": "Constellation 1 438",
        "Satellite Number": 438,
        "Semi-Major Axis(m)": 7083131.272910544,
        "Time(s)": 84
    },
    {
        "Altitude(m)": 707859.0434685152,
        "Argument of Periapsis(deg)": 0.0050955805308594785,
        "Eccentricity": 0.0,
        "Inclination(deg)": 45.0,
        "Latitude(deg)": -19.251425994906647,
        "Longitude(deg)": -25.655525799220445,
        "Mean Anomaly(deg)": -27.56770307875863,
        "RAAN(deg)": 94.99518992092659,
        "Satellite Name": "Constellation 1 438",
        "Satellite Number": 438,
        "Semi-Major Axis(m)": 7083131.272910544,
        "Time(s)": 85
    },
    {
        "Altitude(m)": 707846.0918017133,
        "Argument of Periapsis(deg)": 0.005155528537104883,
        "Eccentricity": 0.0,
        "Inclination(deg)": 45.0,
        "Latitude(deg)": -19.210977948314724,
        "Longitude(deg)": -25.611644539117535,
        "Mean Anomaly(deg)": -27.507001938508715,
        "RAAN(deg)": 94.99513333176102,
        "Satellite Name": "Constellation 1 438",
        "Satellite Number": 438,
        "Semi-Major Axis(m)": 7083131.272910544,
        "Time(s)": 86
    },
    {
        "Altitude(m)": 707833.1491077873,
        "Argument of Periapsis(deg)": 0.0052154765433502885,
        "Eccentricity": 0.0,
        "Inclination(deg)": 45.0,
        "Latitude(deg)": -19.170517073640518,
        "Longitude(deg)": -25.56778661852044,
        "Mean Anomaly(deg)": -27.446300798258754,
        "RAAN(deg)": 94.99507674259547,
        "Satellite Name": "Constellation 1 438",
        "Satellite Number": 438,
        "Semi-Major Axis(m)": 7083131.272910544,
        "Time(s)": 87
    },
    {
        "Altitude(m)": 707820.2154283219,
        "Argument of Periapsis(deg)": 0.005275424549595694,
        "Eccentricity": 0.0,
        "Inclination(deg)": 45.0,
        "Latitude(deg)": -19.130043405584054,
        "Longitude(deg)": -25.52395198018764,
        "Mean Anomaly(deg)": -27.385599658008843,
        "RAAN(deg)": 94.99502015342989,
        "Satellite Name": "Constellation 1 438",
        "Satellite Number": 438,
        "Semi-Major Axis(m)": 7083131.272910544,
        "Time(s)": 88
    },
    {
        "Altitude(m)": 707807.2908048766,
        "Argument of Periapsis(deg)": 0.0053353725558411,
        "Eccentricity": 0.0,
        "Inclination(deg)": 45.0,
        "Latitude(deg)": -19.089556978800154,
        "Longitude(deg)": -25.480140735003236,
        "Mean Anomaly(deg)": -27.324898517759035,
        "RAAN(deg)": 94.99496356426432,
        "Satellite Name": "Constellation 1 438",
        "Satellite Number": 438,
        "Semi-Major Axis(m)": 7083131.272910544,
        "Time(s)": 89
    },
    {
        "Altitude(m)": 707794.375278947,
        "Argument of Periapsis(deg)": 0.005395320562086505,
        "Eccentricity": 0.0,
        "Inclination(deg)": 45.0,
        "Latitude(deg)": -19.04905782789741,
        "Longitude(deg)": -25.436352489588565,
        "Mean Anomaly(deg)": -27.26419737750912,
        "RAAN(deg)": 94.99490697509874,
        "Satellite Name": "Constellation 1 438",
        "Satellite Number": 438,
        "Semi-Major Axis(m)": 7083131.272910544,
        "Time(s)": 90
    },
    {
        "Altitude(m)": 707781.468891977,
        "Argument of Periapsis(deg)": 0.00545526856833191,
        "Eccentricity": 0.0,
        "Inclination(deg)": 45.0,
        "Latitude(deg)": -19.00854598744017,
        "Longitude(deg)": -25.392587354885226,
        "Mean Anomaly(deg)": -27.20349623725917,
        "RAAN(deg)": 94.99485038593319,
        "Satellite Name": "Constellation 1 438",
        "Satellite Number": 438,
        "Semi-Major Axis(m)": 7083131.272910544,
        "Time(s)": 91
    },
    {
        "Altitude(m)": 707768.5716853649,
        "Argument of Periapsis(deg)": 0.005515216574577317,
        "Eccentricity": 0.0,
        "Inclination(deg)": 45.0,
        "Latitude(deg)": -18.96802149194749,
        "Longitude(deg)": -25.348845273766653,
        "Mean Anomaly(deg)": -27.142795097009312,
        "RAAN(deg)": 94.99479379676762,
        "Satellite Name": "Constellation 1 438",
        "Satellite Number": 438,
        "Semi-Major Axis(m)": 7083131.272910544,
        "Time(s)": 92
    },
    {
        "Altitude(m)": 707755.6837004628,
        "Argument of Periapsis(deg)": 0.005575164580822722,
        "Eccentricity": 0.0,
        "Inclination(deg)": 45.0,
        "Latitude(deg)": -18.9274843758933,
        "Longitude(deg)": -25.305126189134928,
        "Mean Anomaly(deg)": -27.0820939567594,
        "RAAN(deg)": 94.99473720760204,
        "Satellite Name": "Constellation 1 438",
        "Satellite Number": 438,
        "Semi-Major Axis(m)": 7083131.272910544,
        "Time(s)": 93
    },
    {
        "Altitude(m)": 707742.8049785682,
        "Argument of Periapsis(deg)": 0.005635112587068129,
        "Eccentricity": 0.0,
        "Inclination(deg)": 45.0,
        "Latitude(deg)": -18.88693467370679,
        "Longitude(deg)": -25.26143004392115,
        "Mean Anomaly(deg)": -27.021392816509536,
        "RAAN(deg)": 94.99468061843648,
        "Satellite Name": "Constellation 1 438",
        "Satellite Number": 438,
        "Semi-Major Axis(m)": 7083131.272910544,
        "Time(s)": 94
    }
]